CUPID                   
1 49264U 21088E   26068.66993977  .00009454  00000+0  38662-3 0  9991
2 49264  97.3985 131.0756 0013746  59.9938 300.2662 15.24473777245013
STARLINK-31134          
1 58621U 23203D   26068.34489044  .00002548  00000+0  10214-3 0  9999
2 58621  43.0027  69.4663 0001414 264.5032  95.5658 15.27565704123507
